E-ST@R-II               
1 41459U 16025D   21285.49934823  .00003034  00000-0  14771-3 0  9990
2 41459  98.1594  68.8494 0158604  28.3942 332.5810 15.08837229300068
AAUSAT 4                
1 41460U 16025E   21285.47669895  .00005051  00000-0  23076-3 0  9993
2 41460  98.1584  73.3171 0143947  10.3623 350.0519 15.12254910300395
BEESAT-4                
1 41619U 16040W   21284.86442641  .00005323  00000-0  20821-3 0  9993
2 41619  97.2561 337.6577 0008696 280.8638  79.1622 15.26221368282763
CANX-7                  
1 41788U 16059F   21285.55014910  .00032242  00000-0  32687-2 0  9993
2 41788  98.2490  35.4422 0026620 176.9365 183.1999 14.90551891271288
RAVAN                   
1 41849U 16067B   21285.06832619  .00001071  00000-0  92900-4 0  9992
2 41849  97.9774  50.5309 0008137  71.8906 288.3201 14.99270175268761
CELTEE 1                
1 41850U 16067C   21285.08287890  .00001225  00000-0  11011-3 0  9995
2 41850  97.9682  46.6260 0010217  87.2246 273.0145 14.97581668268570
OPTICUBE 04             
1 41851U 16067D   21285.31481230  .00000001  00000-0  54018-5 0  9993
2 41851  97.9675  46.1636 0010151  85.8883 274.3499 14.97199115268571
AEROCUBE 8D             
1 41852U 16067E   21285.11002600  .00000475  00000-0  46195-4 0  9993
2 41852  97.9674  45.8512 0011001  86.6372 273.6107 14.97366589268521
AEROCUBE 8C             
1 41853U 16067F   21285.28630074  .00001645  00000-0  14690-3 0  9998
2 41853  97.9664  45.8837 0011549  89.5322 270.7222 14.97329849268541
PROMETHEUS 2-1          
1 41854U 16067G   21284.91809121  .00000895  00000-0  81219-4 0  9997
2 41854  97.9676  46.2307 0011259  86.1300 274.1208 14.97898537268524
PROMETHEUS 2-3          
1 41855U 16067H   21284.91418323  .00000924  00000-0  83622-4 0  9991
2 41855  97.9682  46.2868 0011638  86.3953 273.8600 14.97919730268522
INS-1B                  
1 41954U 17008G   21284.88723445  .00004949  00000-0  18998-3 0  9991
2 41954  97.2951 345.4072 0009752  48.4005 311.8068 15.26872355258777
BGUSAT                  
1 41999U 17008BD  21284.73122099  .00010188  00000-0  33984-3 0  9996
2 41999  97.3136 352.7985 0008090  51.2163 308.9799 15.31230424258495
DIDO-2                  
1 42000U 17008BE  21284.91427292  .00003048  00000-0  12191-3 0  9997
2 42000  97.2949 345.5147 0009626  66.0389 294.1856 15.25806655258140
PEASSS                  
1 42015U 17008BV  21284.91892879  .00004729  00000-0  17834-3 0  9996
2 42015  97.2993 348.3230 0007483  66.7863 293.4164 15.27504779258791
AL-FARABI 1             
1 42016U 17008BW  21285.12440016  .00006683  00000-0  24037-3 0  9997
2 42016  97.3046 350.6096 0007148  64.5413 295.6566 15.28917357259054
NAYIF-1 (EO-88)         
1 42017U 17008BX  21284.76060479  .00006180  00000-0  22210-3 0  9991
2 42017  97.3038 350.2589 0007202  64.6312 295.5673 15.28971996259023
UCLSAT                  
1 42765U 17036A   21284.91560068  .00004649  00000-0  18612-3 0  9997
2 42765  97.2366 330.7464 0012211 121.7190 238.5240 15.25471067239921
LITUANICASAT-2          
1 42768U 17036D   21284.87133798  .00008972  00000-0  33621-3 0  9991
2 42768  97.2445 331.9076 0015007 111.7877 248.4961 15.27379935239238
AALTO-1                 
1 42775U 17036L   21285.11750952  .00002947  00000-0  12762-3 0  9993
2 42775  97.2345 327.1777 0014947 120.3581 239.9136 15.23063302238951
URSA MAIOR              
1 42776U 17036M   21284.76996035  .00003083  00000-0  13222-3 0  9992
2 42776  97.2358 327.3785 0014708 120.7599 239.5089 15.23366244238926
COMPASS 2               
1 42777U 17036N   21285.09565895  .00006784  00000-0  26165-3 0  9997
2 42777  97.2433 332.1384 0013145 112.1866 248.0770 15.26539741239207
DIAMOND RED             
1 42783U 17036U   21284.85512265  .00003569  00000-0  14834-3 0  9998
2 42783  97.2372 329.3493 0012971 125.9457 234.2986 15.24347186239045
PEGASUS                 
1 42784U 17036V   21285.12643907  .00004391  00000-0  17842-3 0  9994
2 42784  97.2375 330.4097 0012811 123.1524 237.0946 15.24997762239138
DIAMOND GREEN           
1 42785U 17036W   21285.11675166  .00003719  00000-0  15456-3 0  9998
2 42785  97.2376 329.6543 0012882 125.6645 234.5794 15.24329301239079
DIAMOND BLUE            
1 42786U 17036X   21284.91892955  .00003606  00000-0  14994-3 0  9994
2 42786  97.2375 329.4556 0012799 126.6731 233.5685 15.24331642239120
NUDTSAT                 
1 42787U 17036Y   21284.97420547  .00005675  00000-0  21480-3 0  9991
2 42787  97.2418 333.0795 0011758 115.6092 244.6364 15.27254977239111
SUCHAI                  
1 42788U 17036Z   21284.86431702  .00005344  00000-0  21077-3 0  9990
2 42788  97.2385 331.3059 0012324 120.8832 239.3620 15.25905136239236
SKCUBE                  
1 42789U 17036AA  21284.65301688  .00004830  00000-0  19257-3 0  9993
2 42789  97.2377 330.7542 0012223 122.1772 238.0654 15.25586176239102
VZLUSAT-1               
1 42790U 17036AB  21284.83954455  .00006695  00000-0  25320-3 0  9990
2 42790  97.2411 332.9353 0011608 116.7667 243.4761 15.27216103239241
ROBUSTA-1B              
1 42792U 17036AD  21285.38956139  .00005947  00000-0  23447-3 0  9991
2 42792  97.2382 331.8948 0011855 119.6810 240.5611 15.25871057239250
CICERO 6                
1 42793U 17036AE  21284.68945289  .00003200  00000-0  13269-3 0  9999
2 42793  97.2352 329.7795 0011265 125.7179 234.5109 15.24523608239143
D-SAT                   
1 42794U 17036AF  21284.61173847  .00000590  00000-0  55817-4 0  9991
2 42794  97.4587 298.3229 0124737 197.0062 162.6960 14.91713066234379
CORVUS BC2              
1 42846U 17042X   21284.89961813  .00000566  00000-0  60351-4 0  9996
2 42846  97.4538 150.8550 0011042 106.1127 254.1309 14.92379111231202
CORVUS BC1              
1 42847U 17042Y   21285.13086491  .00000461  00000-0  50022-4 0  9993
2 42847  97.4540 151.3342 0010694 104.5348 255.7059 14.92476599231241
MIRATA                  
1 43015U 17073C   21285.21492443  .00003878  00000-0  29879-3 0  9992
2 43015  97.6903 184.9955 0246532 275.0973  82.2147 14.81232081210495
MAKERSAT 0              
1 43016U 17073D   21284.70431606  .00002419  00000-0  19011-3 0  9997
2 43016  97.6933 184.4503 0250798 279.4712  77.8236 14.80338249210379
AEROCUBE 7B (OCSD B)    
1 43042U 17071F   21285.19794072  .00025578  00000-0  43763-3 0  9999
2 43042  51.6355 211.8718 0003402  44.7951 315.3313 15.51080436216930
AEROCUBE 7C (OCSD C)    
1 43043U 17071G   21284.53147186  .00020972  00000-0  36456-3 0  9999
2 43043  51.6348 215.6614 0003691  43.8829 316.2453 15.50758206216799
CHEFSAT                 
1 43044U 17071H   21284.94490022  .00092812  00000-0  74668-3 0  9994
2 43044  51.6310 165.5995 0002780 145.3167 214.8012 15.70171094217505
ASGARDIA 1              
1 43049U 17071N   21285.19737111  .00022756  00000-0  39934-3 0  9997
2 43049  51.6368 212.0113 0002493  75.3619 284.7647 15.50437806216893
ISARA                   
1 43050U 17071P   21285.19004403  .00075932  00000-0  78377-3 0  9998
2 43050  51.6289 175.2399 0002765 142.1658 217.9531 15.64097264217381
PROPCUBE 2 (FAUNA)      
1 43052U 17071R   21284.76221006  .00021806  00000-0  36710-3 0  9998
2 43052  51.6347 209.8436 0002356  78.3951 281.7302 15.51639265216884
CORVUS BC3              
1 43118U 18004H   21284.92875368  .00003113  00000-0  12880-3 0  9995
2 43118  97.3928 356.0145 0010692 151.7747 208.4072 15.24655256208320
MICROMAS-2A             
1 43131U 18004W   21284.76805387  .00008140  00000-0  29699-3 0  9997
2 43131  97.4022 359.9666 0009157 143.7076 216.4786 15.28367378208523
SPACEBEE-4              
1 43139U 18004AE  21285.19196630  .00014494  00000-0  48346-3 0  9996
2 43139  97.4095   3.2832 0008404 139.9090 220.2773 15.31143992208732
SPACEBEE-3              
1 43140U 18004AF  21284.75492127  .00017263  00000-0  53631-3 0  9999
2 43140  97.4135   4.7367 0007759 137.0913 223.0936 15.33391663208782
SPACEBEE-2              
1 43141U 18004AG  21284.77603237  .00019162  00000-0  58007-3 0  9990
2 43141  97.4157   5.4837 0007584 135.8218 224.3632 15.34194331208823
SPACEBEE-1              
1 43142U 18004AH  21284.88572339  .00021096  00000-0  61878-3 0  9990
2 43142  97.4167   6.3359 0007488 133.3671 226.8197 15.35173030208875
CICERO 7                
1 43143U 18004AJ  21284.85640460  .00007292  00000-0  26814-3 0  9992
2 43143  97.3994   0.0308 0007420 150.4489 209.7171 15.28162504208554
GOMX-4B                 
1 43196U 18015E   21284.86725153  .00001674  00000-0  69441-4 0  9998
2 43196  97.5015  57.9758 0017409 206.7095 153.3247 15.25174822205259
GOMX-4A                 
1 43197U 18015F   21285.49097705  .00002816  00000-0  11247-3 0  9993
2 43197  97.5009  58.9611 0017646 205.3732 219.8639 15.25862022205381
AEROCUBE 12A            
1 43556U 18046C   21285.41571652  .00007564  00000-0  24746-3 0  9999
2 43556  51.6391 305.4586 0006794 221.5373 138.5093 15.32668916181219
AEROCUBE 12B            
1 43557U 18046D   21284.51645918  .00003993  00000-0  13922-3 0  9993
2 43557  51.6401 312.1604 0006959 216.6652 143.3853 15.31948532180992
SURFSAT                 
1 43614U 18070B   21284.71295152  .00010832  00000-0  24062-3 0  9994
2 43614  93.0316 354.4992 0010868 271.3455  88.6557 15.43622020172596
CP7 (DAVE)              
1 43615U 18070C   21284.75414759  .00010454  00000-0  23500-3 0  9991
2 43615  93.0322 354.4561 0011049 271.5316  88.4675 15.43267232172584
ELFIN-B                 
1 43616U 18070D   21284.91601988  .00017798  00000-0  35091-3 0  9998
2 43616  93.0271 354.8794 0010602 264.2874  95.7176 15.47094121172768
ELFIN-A                 
1 43617U 18070E   21284.70609370  .00018939  00000-0  36522-3 0  9997
2 43617  93.0324 355.7555 0010037 261.1584  98.8538 15.47738511172752
CUBEBEL-1 (BSUSAT-1)    
1 43666U 18083E   21285.46374076  .00002980  00000-0  14184-3 0  9990
2 43666  97.4476 312.3455 0015916 117.6393 353.3247 15.19826068163787
